[{"OBJECT_NAME":"STARLINK-1356","OBJECT_ID":"2020-025AK","EPOCH":"2026-03-09T09:47:10.727520","MEAN_MOTION":15.44776817,"ECCENTRICITY":0.0005933,"INCLINATION":53.0527,"RA_OF_ASC_NODE":75.1976,"ARG_OF_PERICENTER":32.1669,"MEAN_ANOMALY":327.9698,"EPHEMERIS_TYPE":0,"CLASSIFICATION_TYPE":"U","NORAD_CAT_ID":45564,"ELEMENT_SET_NO":999,"REV_AT_EPOCH":32550,"BSTAR":0.0018744498,"MEAN_MOTION_DOT":0.00089774,"MEAN_MOTION_DDOT":0},{"OBJECT_NAME":"SAMSAT-IONOSPHERE (RS75S)","OBJECT_ID":"2024-199BB","EPOCH":"2026-03-09T22:17:42.664992","MEAN_MOTION":15.49563395,"ECCENTRICITY":0.00086255,"INCLINATION":97.3115,"RA_OF_ASC_NODE":302.9928,"ARG_OF_PERICENTER":292.4017,"MEAN_ANOMALY":67.632,"EPHEMERIS_TYPE":0,"CLASSIFICATION_TYPE":"U","NORAD_CAT_ID":61784,"ELEMENT_SET_NO":999,"REV_AT_EPOCH":12215,"BSTAR":0.00081689278,"MEAN_MOTION_DOT":0.00045244,"MEAN_MOTION_DDOT":0}]
